NORAD_CAT_ID,OBJECT_NAME,OBJECT_TYPE,EPOCH,MEAN_MOTION,ECCENTRICITY,INCLINATION,RA_OF_ASC_NODE,ARG_OF_PERICENTER,MEAN_ANOMALY,BSTAR,MEAN_MOTION_DOT,MEAN_MOTION_DDOT,TLE_LINE0,TLE_LINE1,TLE_LINE2,SEMIMAJOR_AXIS,PERIOD,APOGEE,PERIGEE,DECAYED
53978.0,STARLINK-5148,PAYLOAD,2024-06-15 07:07:22,15.0884787,0.0001454,53.2161,177.9571,88.3694,271.7465,9.6295e-05,1.245e-05,0.0,0 STARLINK-5148,1 53978U 22125Q   24167.29678835  .00001245  00000-0  96295-4 0  9999,2 53978  53.2161 177.9571 0001454  88.3694 271.7465 15.08847870 93924,6917.856,95.437,540.727,538.715,0.0
53978.0,STARLINK-5148,PAYLOAD,2024-06-15 18:15:04,15.08845617,0.0001435,53.2159,175.8754,88.2405,271.8751,7.2302e-05,8.63e-06,0.0,0 STARLINK-5148,1 53978U 22125Q   24167.76046877  .00000863  00000-0  72302-4 0  9994,2 53978  53.2159 175.8754 0001435  88.2405 271.8751 15.08845617 93992,6917.863,95.437,540.721,538.736,0.0
53978.0,STARLINK-5148,PAYLOAD,2024-06-16 10:08:55,15.08843242,0.0001468,53.2163,172.9014,91.213,268.903,3.1399e-05,2.12e-06,0.0,0 STARLINK-5148,1 53978U 22125Q   24168.42286960  .00000212  00000-0  31399-4 0  9996,2 53978  53.2163 172.9014 0001468  91.2130 268.9030 15.08843242 94090,6917.87,95.437,540.751,538.72,0.0
53978.0,STARLINK-5148,PAYLOAD,2024-06-17 06:48:56,15.08841082,0.0001475,53.2165,169.0357,92.1452,267.9709,-7.9143e-06,-4.14e-06,0.0,0 STARLINK-5148,1 53978U 22125Q   24169.28399191 -.00000414  00000-0 -79143-5 0  9998,2 53978  53.2165 169.0357 0001475  92.1452 267.9709 15.08841082 94221,6917.877,95.437,540.762,538.722,0.0
53978.0,STARLINK-5148,PAYLOAD,2024-06-18 09:50:30,15.08838169,0.0001383,53.216,163.981,89.6444,270.4706,3.1971e-05,2.21e-06,0.0,0 STARLINK-5148,1 53978U 22125Q   24170.41007235  .00000221  00000-0  31971-4 0  9990,2 53978  53.2160 163.9810 0001383  89.6444 270.4706 15.08838169 94467,6917.886,95.438,540.708,538.794,0.0
53978.0,STARLINK-5148,PAYLOAD,2024-06-18 16:12:03,15.08834223,0.000132,53.2155,162.7908,86.8823,273.232,7.4248e-06,-1.7e-06,0.0,0 STARLINK-5148,1 53978U 22125Q   24170.67503600 -.00000170  00000-0  74248-5 0  9994,2 53978  53.2155 162.7908 0001320  86.8823 273.2320 15.08834223 94434,6917.898,95.438,540.676,538.85,0.0
53978.0,STARLINK-5148,PAYLOAD,2024-06-19 03:19:45,15.08828467,0.000138,53.2159,160.7101,90.3094,269.8057,-9.6489e-06,-4.41e-06,0.0,0 STARLINK-5148,1 53978U 22125Q   24171.13872291 -.00000441  00000-0 -96489-5 0  9994,2 53978  53.2159 160.7101 0001380  90.3094 269.8057 15.08828467 94573,6917.916,95.438,540.735,538.826,0.0
53978.0,STARLINK-5148,PAYLOAD,2024-06-19 09:41:18,15.08829621,0.000137,53.2161,159.5211,90.2377,269.8772,-2.1988e-06,-3.23e-06,0.0,0 STARLINK-5148,1 53978U 22125Q   24171.40368345 -.00000323  00000-0 -21988-5 0  9995,2 53978  53.2161 159.5211 0001370  90.2377 269.8772 15.08829621 94540,6917.912,95.438,540.725,538.829,0.0
53978.0,STARLINK-5148,PAYLOAD,2024-06-19 16:02:50,15.08832209,0.000137,53.2162,158.3317,89.949,270.1659,1.9575e-05,2.4e-07,0.0,0 STARLINK-5148,1 53978U 22125Q   24171.66864246  .00000024  00000-0  19575-4 0  9998,2 53978  53.2162 158.3317 0001370  89.9490 270.1659 15.08832209 94585,6917.904,95.438,540.717,538.821,0.0
53978.0,STARLINK-5148,PAYLOAD,2024-06-20 04:45:55,15.08836483,0.0001346,53.2162,155.9526,90.0302,270.0844,3.3598e-05,2.47e-06,0.0,0 STARLINK-5148,1 53978U 22125Q   24172.19856120  .00000247  00000-0  33598-4 0  9997,2 53978  53.2162 155.9526 0001346  90.0302 270.0844 15.08836483 94738,6917.891,95.438,540.687,538.825,0.0
53978.0,STARLINK-5148,PAYLOAD,2024-06-20 07:56:41,15.08837536,0.0001373,53.2167,155.3587,92.0946,268.0203,5.0232e-05,5.12e-06,0.0,0 STARLINK-5148,1 53978U 22125Q   24172.33104034  .00000512  00000-0  50232-4 0  9992,2 53978  53.2167 155.3587 0001373  92.0946 268.0203 15.08837536 94680,6917.888,95.438,540.703,538.803,0.0
53978.0,STARLINK-5148,PAYLOAD,2024-06-21 07:47:28,15.08840373,0.0001325,53.2167,150.8976,91.0571,269.0573,0.00011259,1.504e-05,0.0,0 STARLINK-5148,1 53978U 22125Q   24173.32463847  .00001504  00000-0  11259-3 0  9999,2 53978  53.2167 150.8976 0001325  91.0571 269.0573 15.08840373 94901,6917.879,95.438,540.661,538.828,0.0
53978.0,STARLINK-5148,PAYLOAD,2024-06-22 04:27:30,15.08838221,0.0001546,53.2176,147.0298,83.4395,276.6773,1.6617e-05,-2.4e-07,0.0,0 STARLINK-5148,1 53978U 22125Q   24174.18576500 -.00000024  00000-0  16617-4 0  9996,2 53978  53.2176 147.0298 0001546  83.4395 276.6773 15.08838221 95030,6917.886,95.438,540.82,538.681,0.0
53978.0,STARLINK-5148,PAYLOAD,2024-06-23 04:18:16,15.0884646,0.0001568,53.2176,142.5691,86.618,273.4991,6.5339e-05,7.52e-06,0.0,0 STARLINK-5148,1 53978U 22125Q   24175.17935643  .00000752  00000-0  65339-4 0  9995,2 53978  53.2176 142.5691 0001568  86.6180 273.4991 15.08846460 95185,6917.861,95.437,540.81,538.641,0.0
53978.0,STARLINK-5148,PAYLOAD,2024-06-23 07:29:02,15.08847423,0.0001562,53.2176,141.9739,87.6941,272.423,7.2452e-05,8.65e-06,0.0,0 STARLINK-5148,1 53978U 22125Q   24175.31183501  .00000865  00000-0  72452-4 0  9998,2 53978  53.2176 141.9739 0001562  87.6941 272.4230 15.08847423 95131,6917.858,95.437,540.803,538.642,0.0
53978.0,STARLINK-5148,PAYLOAD,2024-06-24 04:09:03,15.08838513,0.000159,53.2168,138.1061,77.4054,282.7116,2.4951e-05,1.09e-06,0.0,0 STARLINK-5148,1 53978U 22125Q   24176.17296188  .00000109  00000-0  24951-4 0  9991,2 53978  53.2168 138.1061 0001590  77.4054 282.7116 15.08838513 95330,6917.885,95.438,540.85,538.65,0.0
53978.0,STARLINK-5148,PAYLOAD,2024-06-25 03:59:50,15.08840096,0.0001585,53.2173,133.6437,94.0588,266.0585,8.9909e-06,-1.45e-06,0.0,0 STARLINK-5148,1 53978U 22125Q   24177.16655981 -.00000145  00000-0  89909-5 0  9997,2 53978  53.2173 133.6437 0001585  94.0588 266.0585 15.08840096 95417,6917.88,95.438,540.842,538.649,0.0
53978.0,STARLINK-5148,PAYLOAD,2024-06-26 03:50:37,15.08842074,0.0001617,53.2177,129.1894,103.6073,256.5099,6.1173e-05,6.86e-06,0.0,0 STARLINK-5148,1 53978U 22125Q   24178.16015737  .00000686  00000-0  61173-4 0  9998,2 53978  53.2177 129.1894 0001617 103.6073 256.5099 15.08842074 95636,6917.874,95.437,540.858,538.62,0.0
53978.0,STARLINK-5148,PAYLOAD,2024-06-27 03:41:25,15.08834362,0.0001537,53.2173,124.7289,105.1093,255.007,-2.5342e-05,-6.91e-06,0.0,0 STARLINK-5148,1 53978U 22125Q   24179.15376800 -.00000691  00000-0 -25342-4 0  9995,2 53978  53.2173 124.7289 0001537 105.1093 255.0070 15.08834362 95781,6917.898,95.438,540.826,538.699,0.0
53978.0,STARLINK-5148,PAYLOAD,2024-06-27 13:13:44,15.08841741,0.000135,53.217,122.9459,105.7601,254.354,-7.5384e-05,-1.488e-05,0.0,0 STARLINK-5148,1 53978U 22125Q   24179.55120440 -.00001488  00000-0 -75384-4 0  9992,2 53978  53.2170 122.9459 0001350 105.7601 254.3540 15.08841741 95773,6917.875,95.437,540.674,538.806,0.0
53978.0,STARLINK-5148,PAYLOAD,2024-06-28 03:32:12,15.08840459,0.0001434,53.2169,120.2697,78.5523,281.563,1.2378e-05,-9.1e-07,0.0,0 STARLINK-5148,1 53978U 22125Q   24180.14736749 -.00000091  00000-0  12378-4 0  9996,2 53978  53.2169 120.2697 0001434  78.5523 281.5630 15.08840459 95866,6917.879,95.438,540.736,538.752,0.0
53978.0,STARLINK-5148,PAYLOAD,2024-06-29 03:22:57,15.08865354,0.0001277,53.2168,115.8089,96.6447,263.469,0.00028507,4.255e-05,0.0,0 STARLINK-5148,1 53978U 22125Q   24181.14094150  .00004255  00000-0  28507-3 0  9995,2 53978  53.2168 115.8089 0001277  96.6447 263.4690 15.08865354 96082,6917.803,95.436,540.551,538.784,0.0
53978.0,STARLINK-5148,PAYLOAD,2024-06-29 12:55:18,15.0883223,0.0001755,53.2166,114.0241,72.7323,287.3861,-1.0444e-05,-4.54e-06,0.0,0 STARLINK-5148,1 53978U 22125Q   24181.53841222 -.00000454  00000-0 -10444-4 0  9999,2 53978  53.2166 114.0241 0001755  72.7323 287.3861 15.08832230 96149,6917.904,95.438,540.983,538.555,0.0
53978.0,STARLINK-5148,PAYLOAD,2024-06-29 19:16:53,15.08807196,0.0001548,53.2149,112.834,78.9829,281.1337,-0.00017837,-3.123e-05,0.0,0 STARLINK-5148,1 53978U 22125Q   24181.80339608 -.00003123  00000-0 -17837-3 0  9997,2 53978  53.2149 112.8340 0001548  78.9829 281.1337 15.08807196 96182,6917.981,95.44,540.917,538.775,0.0
53978.0,STARLINK-5148,PAYLOAD,2024-06-30 04:49:11,15.08821854,0.000127,53.2164,111.0488,82.9879,277.1257,-0.00016178,-2.86e-05,0.0,0 STARLINK-5148,1 53978U 22125Q   24182.20083032 -.00002860  00000-0 -16178-3 0  9993,2 53978  53.2164 111.0488 0001270  82.9879 277.1257 15.08821854 96245,6917.936,95.439,540.679,538.922,0.0
53978.0,STARLINK-5148,PAYLOAD,2024-06-30 12:46:06,15.08831809,0.0001088,53.2155,109.5667,84.8199,275.2918,-8.2638e-05,-1.602e-05,0.0,0 STARLINK-5148,1 53978U 22125Q   24182.53202345 -.00001602  00000-0 -82638-4 0  9997,2 53978  53.2155 109.5667 0001088  84.8199 275.2918 15.08831809 96221,6917.905,95.438,540.523,539.018,0.0
53978.0,STARLINK-5148,PAYLOAD,2024-06-30 22:18:25,15.08846271,7.92e-05,53.2151,107.7838,86.9674,273.1409,-0.00016603,-2.929e-05,0.0,0 STARLINK-5148,1 53978U 22125Q   24182.92945848 -.00002929  00000-0 -16603-3 0  9993,2 53978  53.2151 107.7838 0000792  86.9674 273.1409 15.08846271 96286,6917.861,95.437,540.274,539.178,0.0
53978.0,STARLINK-5148,PAYLOAD,2024-07-01 01:29:10,15.08857442,0.000143,53.2166,107.1824,101.6507,258.4646,-5.7699e-05,-1.207e-05,0.0,0 STARLINK-5148,1 53978U 22125Q   24183.06192749 -.00001207  00000-0 -57699-4 0  9992,2 53978  53.2166 107.1824 0001430 101.6507 258.4646 15.08857442 96372,6917.827,95.436,540.681,538.703,0.0
53978.0,STARLINK-5148,PAYLOAD,2024-07-01 22:09:11,15.08826135,0.00013,53.2177,103.3176,86.198,273.9161,0.00040606,6.178e-05,0.0,0 STARLINK-5148,1 53978U 22125Q   24183.92305554  .00006178  00000-0  40606-3 0  9996,2 53978  53.2177 103.3176 0001300  86.1980 273.9161 15.08826135 96436,6917.923,95.438,540.687,538.888,0.0
53978.0,STARLINK-5148,PAYLOAD,2024-07-02 04:30:43,15.08842826,0.0001324,53.217,102.1287,85.0488,275.0655,0.00031821,4.78e-05,0.0,0 STARLINK-5148,1 53978U 22125Q   24184.18800899  .00004780  00000-0  31821-3 0  9993,2 53978  53.2170 102.1287 0001324  85.0488 275.0655 15.08842826 96544,6917.872,95.437,540.653,538.821,0.0
